{"type": "FeatureCollection", "features": [{"type": "Feature", "properties": {"name": "Zinacantepec", "description": "Itinerarios (Rutas):<br>\ud83d\ude85 \"Zinacantepec - Santa F\u00e9\".", "styleUrl": "#icon-ci-1-labelson"}, "geometry": {"type": "Point", "coordinates": [-99.6947, 19.280229, 0.0]}}, {"type": "Feature", "properties": {"name": "Toluca Centro", "description": "Itinerarios (Rutas):<br>\ud83d\ude85 \"Zinacantepec - Santa F\u00e9\".", "styleUrl": "#icon-ci-2-labelson"}, "geometry": {"type": "Point", "coordinates": [-99.641383, 19.270338, 0.0]}}, {"type": "Feature", "properties": {"name": "Metepec", "description": "Itinerarios (Rutas):<br>\ud83d\ude85 \"Zinacantepec -\u00a0Santa F\u00e9\".", "styleUrl": "#icon-ci-3-labelson"}, "geometry": {"type": "Point", "coordinates": [-99.574515, 19.27754, 0.0]}}, {"type": "Feature", "properties": {"name": "Lerma", "description": "Itinerarios (Rutas):<br>\ud83d\ude85 \"Zinacantepec -\u00a0Santa F\u00e9\".", "styleUrl": "#icon-ci-4-labelson"}, "geometry": {"type": "Point", "coordinates": [-99.513984, 19.278608, 0.0]}}, {"type": "Feature", "properties": {"name": "Santa F\u00e9", "description": "Itinerarios (Rutas):<br>\ud83d\ude85 \"Zinacantepec - Santa F\u00e9\".", "styleUrl": "#icon-ci-5-labelson"}, "geometry": {"type": "Point", "coordinates": [-99.268612, 19.363948, 0.0]}}, {"type": "Feature", "properties": {"description": "Ruta Tren Interurbano:<br>Longitud: 50 kil\u00f3metros", "styleUrl": "#line-A52714-5000"}, "geometry": {"type": "LineString", "coordinates": [[-99.706649, 19.278017, 0.0], [-99.706413, 19.278209, 0.0], [-99.706069, 19.278381, 0.0], [-99.705651, 19.278543, 0.0], [-99.704889, 19.278786, 0.0], [-99.70446, 19.278928, 0.0], [-99.70416, 19.27906, 0.0], [-99.701338, 19.281622, 0.0], [-99.70122, 19.281723, 0.0], [-99.701048, 19.281804, 0.0], [-99.700801, 19.281875, 0.0], [-99.700533, 19.281966, 0.0], [-99.700307, 19.28198, 0.0], [-99.70004, 19.281966, 0.0], [-99.699621, 19.281845, 0.0], [-99.695888, 19.28064, 0.0], [-99.6947, 19.280229, 0.0], [-99.692744, 19.279556, 0.0], [-99.686135, 19.277379, 0.0], [-99.680159, 19.275556, 0.0], [-99.67767, 19.274806, 0.0], [-99.673432, 19.273398, 0.0], [-99.663057, 19.269986, 0.0], [-99.65897, 19.268628, 0.0], [-99.657101, 19.26801, 0.0], [-99.656618, 19.267838, 0.0], [-99.656178, 19.267736, 0.0], [-99.655706, 19.267635, 0.0], [-99.655277, 19.267605, 0.0], [-99.654633, 19.267585, 0.0], [-99.653646, 19.267534, 0.0], [-99.652828, 19.26762, 0.0], [-99.652037, 19.267767, 0.0], [-99.65135, 19.267919, 0.0], [-99.645836, 19.269195, 0.0], [-99.641383, 19.270338, 0.0], [-99.637523, 19.271159, 0.0], [-99.63382, 19.27197, 0.0], [-99.63353, 19.27201, 0.0], [-99.633176, 19.272081, 0.0], [-99.632586, 19.272172, 0.0], [-99.632136, 19.272251, 0.0], [-99.631642, 19.272365, 0.0], [-99.63029, 19.272669, 0.0], [-99.625099, 19.273835, 0.0], [-99.624767, 19.273896, 0.0], [-99.624423, 19.273947, 0.0], [-99.624048, 19.274008, 0.0], [-99.619617, 19.274433, 0.0], [-99.611227, 19.275263, 0.0], [-99.606077, 19.275739, 0.0], [-99.60259, 19.276094, 0.0], [-99.602064, 19.276134, 0.0], [-99.601582, 19.276185, 0.0], [-99.600691, 19.276215, 0.0], [-99.598932, 19.276327, 0.0], [-99.594072, 19.276574, 0.0], [-99.592827, 19.27662, 0.0], [-99.591765, 19.27662, 0.0], [-99.590477, 19.27663, 0.0], [-99.587816, 19.276701, 0.0], [-99.587194, 19.276732, 0.0], [-99.58492, 19.276863, 0.0], [-99.579202, 19.277146, 0.0], [-99.577077, 19.277309, 0.0], [-99.574515, 19.27754, 0.0], [-99.573097, 19.277623, 0.0], [-99.570328, 19.277775, 0.0], [-99.56823, 19.277871, 0.0], [-99.56594, 19.277896, 0.0], [-99.563215, 19.278018, 0.0], [-99.561112, 19.27815, 0.0], [-99.560404, 19.27819, 0.0], [-99.559417, 19.278251, 0.0], [-99.550741, 19.278665, 0.0], [-99.548207, 19.27886, 0.0], [-99.544644, 19.279034, 0.0], [-99.538331, 19.279302, 0.0], [-99.533494, 19.279544, 0.0], [-99.529011, 19.279887, 0.0], [-99.527514, 19.280066, 0.0], [-99.526336, 19.280145, 0.0], [-99.525245, 19.280062, 0.0], [-99.524459, 19.279936, 0.0], [-99.523817, 19.279762, 0.0], [-99.521724, 19.279279, 0.0], [-99.519894, 19.278835, 0.0], [-99.518829, 19.278573, 0.0], [-99.517957, 19.278452, 0.0], [-99.513984, 19.278608, 0.0], [-99.511838, 19.278742, 0.0], [-99.510541, 19.278806, 0.0], [-99.50966, 19.278826, 0.0], [-99.508744, 19.279, 0.0], [-99.508135, 19.279137, 0.0], [-99.507527, 19.279335, 0.0], [-99.506228, 19.279633, 0.0], [-99.505037, 19.27987, 0.0], [-99.497228, 19.280869, 0.0], [-99.4914825, 19.281607, 0.0], [-99.4899483, 19.2817994, 0.0], [-99.4888056, 19.2818855, 0.0], [-99.4880171, 19.2819462, 0.0], [-99.4867511, 19.2819209, 0.0], [-99.4851954, 19.2817791, 0.0], [-99.4846214, 19.2817133, 0.0], [-99.4842459, 19.281688, 0.0], [-99.4836558, 19.2816677, 0.0], [-99.4827063, 19.2816475, 0.0], [-99.4815047, 19.2817184, 0.0], [-99.4754375, 19.2822652, 0.0], [-99.4748313, 19.2823209, 0.0], [-99.4734688, 19.2825184, 0.0], [-99.4692792, 19.2831058, 0.0], [-99.4683618, 19.2832121, 0.0], [-99.4672085, 19.2833438, 0.0], [-99.4665701, 19.2833792, 0.0], [-99.4653417, 19.2835311, 0.0], [-99.46355, 19.2837083, 0.0], [-99.4624342, 19.2838045, 0.0], [-99.4621391, 19.2838298, 0.0], [-99.4614578, 19.2839007, 0.0], [-99.4600953, 19.2840729, 0.0], [-99.4599719, 19.2841235, 0.0], [-99.4597949, 19.2841387, 0.0], [-99.4595803, 19.2841742, 0.0], [-99.4547791, 19.2851109, 0.0], [-99.4484545, 19.2864223, 0.0], [-99.4441308, 19.2873438, 0.0], [-99.4386698, 19.2885236, 0.0], [-99.4359983, 19.2890451, 0.0], [-99.43146, 19.2898957, 0.0], [-99.4280751, 19.2908729, 0.0], [-99.4274474, 19.2910907, 0.0], [-99.4264014, 19.2915008, 0.0], [-99.4252695, 19.2919767, 0.0], [-99.4200053, 19.2945393, 0.0], [-99.4194152, 19.2948026, 0.0], [-99.4185354, 19.2951874, 0.0], [-99.4161644, 19.2959468, 0.0], [-99.415467, 19.2960684, 0.0], [-99.4142546, 19.2963215, 0.0], [-99.4132246, 19.296443, 0.0], [-99.4113793, 19.2965645, 0.0], [-99.4098451, 19.2965038, 0.0], [-99.409373, 19.2964532, 0.0], [-99.4039335, 19.2956127, 0.0], [-99.4034614, 19.2955519, 0.0], [-99.4013478, 19.2952684, 0.0], [-99.4005646, 19.2952481, 0.0], [-99.3921854, 19.2950254, 0.0], [-99.3888058, 19.2949241, 0.0], [-99.3818213, 19.2947418, 0.0], [-99.3809416, 19.2946203, 0.0], [-99.3780555, 19.2945798, 0.0], [-99.3738713, 19.2946912, 0.0], [-99.3715968, 19.2945393, 0.0], [-99.3689038, 19.2944279, 0.0], [-99.3609859, 19.2940431, 0.0], [-99.3594195, 19.2939722, 0.0], [-99.3223253, 19.3170894, 0.0], [-99.3205551, 19.3195649, 0.0], [-99.3199811, 19.3210229, 0.0], [-99.3195358, 19.3221771, 0.0], [-99.3190906, 19.3234021, 0.0], [-99.3187794, 19.3241766, 0.0], [-99.3186507, 19.32445, 0.0], [-99.3184737, 19.3247993, 0.0], [-99.3171291, 19.32707, 0.0], [-99.3169789, 19.3274091, 0.0], [-99.3168502, 19.3277458, 0.0], [-99.3167188, 19.3280849, 0.0], [-99.3160937, 19.3302058, 0.0], [-99.3158764, 19.3307915, 0.0], [-99.3155384, 19.331409, 0.0], [-99.3149054, 19.3323354, 0.0], [-99.3135267, 19.3341526, 0.0], [-99.3132156, 19.3344664, 0.0], [-99.3128133, 19.3348461, 0.0], [-99.3121653, 19.3351431, 0.0], [-99.3112541, 19.3354445, 0.0], [-99.3105173, 19.3354687, 0.0], [-99.3096751, 19.3353776, 0.0], [-99.3086129, 19.3352055, 0.0], [-99.3056303, 19.3347296, 0.0], [-99.3052334, 19.3347094, 0.0], [-99.3048793, 19.3346993, 0.0], [-99.3033934, 19.3348967, 0.0], [-99.3023151, 19.335251, 0.0], [-99.3009579, 19.3359597, 0.0], [-99.2994603, 19.3369171, 0.0], [-99.298972, 19.33737, 0.0], [-99.2984152, 19.3380603, 0.0], [-99.2980558, 19.3385817, 0.0], [-99.2973959, 19.3394827, 0.0], [-99.2969078, 19.3400293, 0.0], [-99.2963231, 19.340576, 0.0], [-99.295792, 19.3410366, 0.0], [-99.2937052, 19.3428639, 0.0], [-99.2932171, 19.3432485, 0.0], [-99.2924017, 19.3436484, 0.0], [-99.2912591, 19.3440179, 0.0], [-99.2884374, 19.3448784, 0.0], [-99.2881262, 19.3450606, 0.0], [-99.2878044, 19.3452377, 0.0], [-99.287504, 19.3454908, 0.0], [-99.2870158, 19.3460527, 0.0], [-99.2865866, 19.3467562, 0.0], [-99.2862809, 19.3471611, 0.0], [-99.286195, 19.3472573, 0.0], [-99.2856854, 19.3476926, 0.0], [-99.285008, 19.347985, 0.0], [-99.2843282, 19.3481279, 0.0], [-99.2836416, 19.3481886, 0.0], [-99.283191, 19.3482291, 0.0], [-99.2826438, 19.3483253, 0.0], [-99.2820269, 19.3485328, 0.0], [-99.2815119, 19.3489225, 0.0], [-99.2810613, 19.3494843, 0.0], [-99.2808306, 19.3499702, 0.0], [-99.2800313, 19.352506, 0.0], [-99.2798436, 19.3531234, 0.0], [-99.2796022, 19.3538725, 0.0], [-99.2790282, 19.3549506, 0.0], [-99.2785561, 19.3556035, 0.0], [-99.2774135, 19.3570763, 0.0], [-99.2768931, 19.3575773, 0.0], [-99.2763031, 19.3580632, 0.0], [-99.2755842, 19.3585592, 0.0], [-99.2724782, 19.3603913, 0.0], [-99.2707133, 19.3613984, 0.0], [-99.2701447, 19.3617881, 0.0], [-99.2697384, 19.3622676, 0.0], [-99.2695117, 19.3625928, 0.0], [-99.269281, 19.3630483, 0.0], [-99.2673638, 19.365816, 0.0]]}}], "name": "/tmp/outputs/"}
